0 SYRACUSE 3A
1 28885U 05041B   13282.68133547  .00000114  00000-0  00000+0 0  4275
2 28885 000.0073 209.8555 0003059 346.3192 114.5928 01.00276002 29371
0 SYRACUSE 3A
1 28885U 05041B   13288.66677519  .00000104  00000-0  00000+0 0  4292
2 28885 000.0132 206.9051 0003463 353.2346 111.2548 01.00270184 29437
0 SYRACUSE 3A
1 28885U 05041B   13290.39675855  .00000000  00000-0  10000-3 0  4308
2 28885 000.0026 187.2712 0003605 021.6511 007.0159 01.00272306 29159
0 SYRACUSE 3A
1 28885U 05041B   13292.89813856  .00000112  00000-0  00000+0 0  4309
2 28885 000.0200 215.5659 0003601 352.9266 190.3586 01.00272746 29485
0 SYRACUSE 3A
1 28885U 05041B   13295.78472714  .00000116  00000-0  00000+0 0  4319
2 28885 000.0110 273.5779 0003848 303.4100 143.9021 01.00275403 29518
